[Satellite]
VERSION=1.1
NAME=JCSAT-1B
NICKNAME=JCSAT-1B
TLE1=1 25067U 97075A   15054.88032343 -.00000229  00000-0  10000-3 0  9992
TLE2=2 25067   4.0281  64.5779 0004017 239.6035 316.1453  1.00271298 63131
